{"type": "FeatureCollection", "features": [{"type": "Feature", "properties": {"norad_id": 36828, "name": "BEIDOU-2 IGSO-1 (C06)", "group": "beidou", "lat": -25.113877738168203, "lon": 144.98281695668308, "alt_km": 35869.997525427214, "timestamp": "2025-12-03T20:47:58.488534+00:00", "meta": {"OBJECT_NAME": "BEIDOU-2 IGSO-1 (C06)", "OBJECT_ID": "2010-036A", "EPOCH": "2025-12-03T10:50:44.942784", "MEAN_MOTION": 1.00278626, "ECCENTRICITY": 0.0051265, "INCLINATION": 54.2837, "RA_OF_ASC_NODE": 164.7326, "ARG_OF_PERICENTER": 215.7728, "MEAN_ANOMALY": 322.4753, "EPHEMERIS_TYPE": 0, "CLASSIFICATION_TYPE": "U", "NORAD_CAT_ID": 36828, "ELEMENT_SET_NO": 999, "REV_AT_EPOCH": 5613, "BSTAR": 0, "MEAN_MOTION_DOT": -2.4e-07, "MEAN_MOTION_DDOT": 0}, "tle": {"line1": "1 36828U 10036A   25337.45190906 -.00000024  00000+0  00000+0 0  9996", "line2": "2 36828  54.2837 164.7326 0051265 215.7728 322.4753  1.00278626 56131"}}, "geometry": {"type": "Point", "coordinates": [144.98281695668308, -25.113877738168203]}}, {"type": "Feature", "properties": {"norad_id": 37210, "name": "BEIDOU-2 G4 (C04)", "group": "beidou", "lat": 2.850021595491432, "lon": -175.09167490142187, "alt_km": 35772.593874636186, "timestamp": "2025-12-03T20:47:58.488561+00:00", "meta": {"OBJECT_NAME": "BEIDOU-2 G4 (C04)", "OBJECT_ID": "2010-057A", "EPOCH": "2025-12-03T12:01:38.692992", "MEAN_MOTION": 1.00271318, "ECCENTRICITY": 0.0010914, "INCLINATION": 3.16, "RA_OF_ASC_NODE": 69.961, "ARG_OF_PERICENTER": 188.4016, "MEAN_ANOMALY": 154.7087, "EPHEMERIS_TYPE": 0, "CLASSIFICATION_TYPE": "U", "NORAD_CAT_ID": 37210, "ELEMENT_SET_NO": 999, "REV_AT_EPOCH": 5532, "BSTAR": 0, "MEAN_MOTION_DOT": -9.5e-07, "MEAN_MOTION_DDOT": 0}, "tle": {"line1": "1 37210U 10057A   25337.50114228 -.00000095  00000+0  00000+0 0  9992", "line2": "2 37210   3.1600  69.9610 0010914 188.4016 154.7087  1.00271318 55329"}}, "geometry": {"type": "Point", "coordinates": [-175.09167490142187, 2.850021595491432]}}, {"type": "Feature", "properties": {"norad_id": 37256, "name": "BEIDOU-2 IGSO-2 (C07)", "group": "beidou", "lat": -27.16119131656608, "lon": 121.78981088583099, "alt_km": 35578.20082362645, "timestamp": "2025-12-03T20:47:58.488576+00:00", "meta": {"OBJECT_NAME": "BEIDOU-2 IGSO-2 (C07)", "OBJECT_ID": "2010-068A", "EPOCH": "2025-12-02T18:32:21.656832", "MEAN_MOTION": 1.00289076, "ECCENTRICITY": 0.00492778, "INCLINATION": 47.9063, "RA_OF_ASC_NODE": 274.2734, "ARG_OF_PERICENTER": 216.2016, "MEAN_ANOMALY": 326.6202, "EPHEMERIS_TYPE": 0, "CLASSIFICATION_TYPE": "U", "NORAD_CAT_ID": 37256, "ELEMENT_SET_NO": 999, "REV_AT_EPOCH": 5482, "BSTAR": 0, "MEAN_MOTION_DOT": -2.27e-06, "MEAN_MOTION_DDOT": 0}, "tle": {"line1": "1 37256U 10068A   25336.77247288 -.00000227  00000+0  00000+0 0  9992", "line2": "2 37256  47.9063 274.2734 0049277 216.2016 326.6202  1.00289076 54823"}}, "geometry": {"type": "Point", "coordinates": [121.78981088583099, -27.16119131656608]}}, {"type": "Feature", "properties": {"norad_id": 37384, "name": "BEIDOU-2 IGSO-3 (C08)", "group": "beidou", "lat": 62.16498247915179, "lon": 132.43031192141973, "alt_km": 35795.139698414576, "timestamp": "2025-12-03T20:47:58.488590+00:00", "meta": {"OBJECT_NAME": "BEIDOU-2 IGSO-3 (C08)", "OBJECT_ID": "2011-013A", "EPOCH": "2025-11-29T21:04:05.094336", "MEAN_MOTION": 1.00273417, "ECCENTRICITY": 0.00356655, "INCLINATION": 62.1255, "RA_OF_ASC_NODE": 42.0418, "ARG_OF_PERICENTER": 186.0158, "MEAN_ANOMALY": 264.7363, "EPHEMERIS_TYPE": 0, "CLASSIFICATION_TYPE": "U", "NORAD_CAT_ID": 37384, "ELEMENT_SET_NO": 999, "REV_AT_EPOCH": 5366, "BSTAR": 0, "MEAN_MOTION_DOT": -1.94e-06, "MEAN_MOTION_DDOT": 0}, "tle": {"line1": "1 37384U 11013A   25333.87783674 -.00000194  00000+0  00000+0 0  9990", "line2": "2 37384  62.1255  42.0418 0035665 186.0158 264.7363  1.00273417 53667"}}, "geometry": {"type": "Point", "coordinates": [132.43031192141973, 62.16498247915179]}}, {"type": "Feature", "properties": {"norad_id": 37763, "name": "BEIDOU-2 IGSO-4 (C09)", "group": "beidou", "lat": -36.39032473686497, "lon": 135.73646598840494, "alt_km": 35701.14975662143, "timestamp": "2025-12-03T20:47:58.488604+00:00", "meta": {"OBJECT_NAME": "BEIDOU-2 IGSO-4 (C09)", "OBJECT_ID": "2011-038A", "EPOCH": "2025-12-01T12:32:09.960864", "MEAN_MOTION": 1.00284074, "ECCENTRICITY": 0.01487808, "INCLINATION": 54.5808, "RA_OF_ASC_NODE": 167.4476, "ARG_OF_PERICENTER": 230.2031, "MEAN_ANOMALY": 315.0387, "EPHEMERIS_TYPE": 0, "CLASSIFICATION_TYPE": "U", "NORAD_CAT_ID": 37763, "ELEMENT_SET_NO": 999, "REV_AT_EPOCH": 5266, "BSTAR": 0, "MEAN_MOTION_DOT": 1.01e-06, "MEAN_MOTION_DDOT": 0}, "tle": {"line1": "1 37763U 11038A   25335.52233751  .00000101  00000+0  00000+0 0  9995", "line2": "2 37763  54.5808 167.4476 0148780 230.2031 315.0387  1.00284074 52664"}}, "geometry": {"type": "Point", "coordinates": [135.73646598840494, -36.39032473686497]}}, {"type": "Feature", "properties": {"norad_id": 37948, "name": "BEIDOU-2 IGSO-5 (C10)", "group": "beidou", "lat": -16.92525014364336, "lon": 109.78270117930266, "alt_km": 35343.019736112044, "timestamp": "2025-12-03T20:47:58.488616+00:00", "meta": {"OBJECT_NAME": "BEIDOU-2 IGSO-5 (C10)", "OBJECT_ID": "2011-073A", "EPOCH": "2025-12-02T19:23:39.606720", "MEAN_MOTION": 1.00292511, "ECCENTRICITY": 0.01107055, "INCLINATION": 48.0402, "RA_OF_ASC_NODE": 273.9813, "ARG_OF_PERICENTER": 222.1881, "MEAN_ANOMALY": 319.0044, "EPHEMERIS_TYPE": 0, "CLASSIFICATION_TYPE": "U", "NORAD_CAT_ID": 37948, "ELEMENT_SET_NO": 999, "REV_AT_EPOCH": 5116, "BSTAR": 0, "MEAN_MOTION_DOT": -1.77e-06, "MEAN_MOTION_DDOT": 0}, "tle": {"line1": "1 37948U 11073A   25336.80809730 -.00000177  00000+0  00000+0 0  9991", "line2": "2 37948  48.0402 273.9813 0110705 222.1881 319.0044  1.00292511 51167"}}, "geometry": {"type": "Point", "coordinates": [109.78270117930266, -16.92525014364336]}}, {"type": "Feature", "properties": {"norad_id": 38091, "name": "BEIDOU-2 G5 (C05)", "group": "beidou", "lat": 0.715273834418098, "lon": 83.68291342957113, "alt_km": 35829.72344709022, "timestamp": "2025-12-03T20:47:58.488630+00:00", "meta": {"OBJECT_NAME": "BEIDOU-2 G5 (C05)", "OBJECT_ID": "2012-008A", "EPOCH": "2025-12-03T12:13:51.619008", "MEAN_MOTION": 1.00272325, "ECCENTRICITY": 0.0012325, "INCLINATION": 3.0845, "RA_OF_ASC_NODE": 70.7341, "ARG_OF_PERICENTER": 225.5074, "MEAN_ANOMALY": 18.5234, "EPHEMERIS_TYPE": 0, "CLASSIFICATION_TYPE": "U", "NORAD_CAT_ID": 38091, "ELEMENT_SET_NO": 999, "REV_AT_EPOCH": 5040, "BSTAR": 0, "MEAN_MOTION_DOT": 7.4e-07, "MEAN_MOTION_DDOT": 0}, "tle": {"line1": "1 38091U 12008A   25337.50962522  .00000074  00000+0  00000+0 0  9992", "line2": "2 38091   3.0845  70.7341 0012325 225.5074  18.5234  1.00272325 50407"}}, "geometry": {"type": "Point", "coordinates": [83.68291342957113, 0.715273834418098]}}, {"type": "Feature", "properties": {"norad_id": 38250, "name": "BEIDOU-2 M3 (C11)", "group": "beidou", "lat": 55.83410254283703, "lon": 36.88736421514869, "alt_km": 21589.983809695957, "timestamp": "2025-12-03T20:47:58.488642+00:00", "meta": {"OBJECT_NAME": "BEIDOU-2 M3 (C11)", "OBJECT_ID": "2012-018A", "EPOCH": "2025-12-01T01:13:35.126400", "MEAN_MOTION": 1.86229725, "ECCENTRICITY": 0.00245382, "INCLINATION": 55.9302, "RA_OF_ASC_NODE": 311.5507, "ARG_OF_PERICENTER": 273.3676, "MEAN_ANOMALY": 86.348, "EPHEMERIS_TYPE": 0, "CLASSIFICATION_TYPE": "U", "NORAD_CAT_ID": 38250, "ELEMENT_SET_NO": 999, "REV_AT_EPOCH": 9225, "BSTAR": 0, "MEAN_MOTION_DOT": -5.3e-07, "MEAN_MOTION_DDOT": 0}, "tle": {"line1": "1 38250U 12018A   25335.05110100 -.00000053  00000+0  00000+0 0  9993", "line2": "2 38250  55.9302 311.5507 0024538 273.3676  86.3480  1.86229725 92251"}}, "geometry": {"type": "Point", "coordinates": [36.88736421514869, 55.83410254283703]}}, {"type": "Feature", "properties": {"norad_id": 38251, "name": "BEIDOU-2 M4 (C12)", "group": "beidou", "lat": 37.2362721852313, "lon": 99.59299491950267, "alt_km": 21558.89945118981, "timestamp": "2025-12-03T20:47:58.488654+00:00", "meta": {"OBJECT_NAME": "BEIDOU-2 M4 (C12)", "OBJECT_ID": "2012-018B", "EPOCH": "2025-11-30T23:35:43.237248", "MEAN_MOTION": 1.86229405, "ECCENTRICITY": 0.00156645, "INCLINATION": 55.8317, "RA_OF_ASC_NODE": 310.7829, "ARG_OF_PERICENTER": 276.4205, "MEAN_ANOMALY": 83.3972, "EPHEMERIS_TYPE": 0, "CLASSIFICATION_TYPE": "U", "NORAD_CAT_ID": 38251, "ELEMENT_SET_NO": 999, "REV_AT_EPOCH": 9225, "BSTAR": 0, "MEAN_MOTION_DOT": -5.3e-07, "MEAN_MOTION_DDOT": 0}, "tle": {"line1": "1 38251U 12018B   25334.98313932 -.00000053  00000+0  00000+0 0  9993", "line2": "2 38251  55.8317 310.7829 0015664 276.4205  83.3972  1.86229405 92255"}}, "geometry": {"type": "Point", "coordinates": [99.59299491950267, 37.2362721852313]}}, {"type": "Feature", "properties": {"norad_id": 38775, "name": "BEIDOU-2 M6 (C14)", "group": "beidou", "lat": -27.008597069198533, "lon": 49.56476888831014, "alt_km": 21502.92099282221, "timestamp": "2025-12-03T20:47:58.488666+00:00", "meta": {"OBJECT_NAME": "BEIDOU-2 M6 (C14)", "OBJECT_ID": "2012-050B", "EPOCH": "2025-12-02T20:12:21.765312", "MEAN_MOTION": 1.86230699, "ECCENTRICITY": 0.0010891, "INCLINATION": 56.3701, "RA_OF_ASC_NODE": 69.396, "ARG_OF_PERICENTER": 346.3051, "MEAN_ANOMALY": 13.6678, "EPHEMERIS_TYPE": 0, "CLASSIFICATION_TYPE": "U", "NORAD_CAT_ID": 38775, "ELEMENT_SET_NO": 999, "REV_AT_EPOCH": 8965, "BSTAR": 0, "MEAN_MOTION_DOT": -4.8e-07, "MEAN_MOTION_DDOT": 0}, "tle": {"line1": "1 38775U 12050B   25336.84191858 -.00000048  00000+0  00000+0 0  9992", "line2": "2 38775  56.3701  69.3960 0010891 346.3051  13.6678  1.86230699 89651"}}, "geometry": {"type": "Point", "coordinates": [49.56476888831014, -27.008597069198533]}}]}